{"type": "FeatureCollection", "features": [ {"type": "Feature", "properties": {"norad_id": 29986, "name": "FENGYUN 1C DEB", "group": "fengyun-1c-debris", "lat": -16.25908684728999, "lon": 71.40545246282122, "alt_km": 784.006927453961, "timestamp": "2025-12-25T22:42:17.284193+00:00", "meta": {"OBJECT_NAME": "FENGYUN 1C DEB", "OBJECT_ID": "1999-025LL", "EPOCH": "2025-12-25T16:39:29.147040", "MEAN_MOTION": 14.29313835, "ECCENTRICITY": 0.0022926, "INCLINATION": 99.3968, "RA_OF_ASC_NODE": 68.3658, "ARG_OF_PERICENTER": 318.2043, "MEAN_ANOMALY": 169.6345, "EPHEMERIS_TYPE": 0, "CLASSIFICATION_TYPE": "U", "NORAD_CAT_ID": 29986, "ELEMENT_SET_NO": 999, "REV_AT_EPOCH": 97692, "BSTAR": 0.0015887, "MEAN_MOTION_DOT": 4.007e-05, "MEAN_MOTION_DDOT": 0}, "tle": {"line1": "1 29986U 99025LL  25359.69408735  .00004007  00000+0  15887-2 0  9996", "line2": "2 29986  99.3968  68.3658 0022926 318.2043 169.6345 14.29313835976924"}}, "geometry": {"type": "Point", "coordinates": [71.40545246282122, -16.25908684728999]}}, {"type": "Feature", "properties": {"norad_id": 29987, "name": "FENGYUN 1C DEB", "group": "fengyun-1c-debris", "lat": -36.99929459192207, "lon": -101.33353986277025, "alt_km": 883.9853002278687, "timestamp": "2025-12-25T22:42:17.284203+00:00", "meta": {"OBJECT_NAME": "FENGYUN 1C DEB", "OBJECT_ID": "1999-025LM", "EPOCH": "2025-12-25T16:21:27.629856", "MEAN_MOTION": 14.14654252, "ECCENTRICITY": 0.0078626, "INCLINATION": 98.8977, "RA_OF_ASC_NODE": 251.6237, "ARG_OF_PERICENTER": 195.9307, "MEAN_ANOMALY": 219.8232, "EPHEMERIS_TYPE": 0, "CLASSIFICATION_TYPE": "U", "NORAD_CAT_ID": 29987, "ELEMENT_SET_NO": 999, "REV_AT_EPOCH": 96556, "BSTAR": 0.00222, "MEAN_MOTION_DOT": 4.356e-05, "MEAN_MOTION_DDOT": 0}, "tle": {"line1": "1 29987U 99025LM  25359.68156979  .00004356  00000+0  22200-2 0  9990", "line2": "2 29987  98.8977 251.6237 0078626 195.9307 219.8232 14.14654252965566"}}, "geometry": {"type": "Point", "coordinates": [-101.33353986277025, -36.99929459192207]}}, {"type": "Feature", "properties": {"norad_id": 29988, "name": "FENGYUN 1C DEB", "group": "fengyun-1c-debris", "lat": -63.88585336000726, "lon": -93.90682709007153, "alt_km": 734.2020526886236, "timestamp": "2025-12-25T22:42:17.284213+00:00", "meta": {"OBJECT_NAME": "FENGYUN 1C DEB", "OBJECT_ID": "1999-025LN", "EPOCH": "2025-12-25T13:22:54.332256", "MEAN_MOTION": 14.50534932, "ECCENTRICITY": 0.0119956, "INCLINATION": 98.6952, "RA_OF_ASC_NODE": 103.8833, "ARG_OF_PERICENTER": 339.1989, "MEAN_ANOMALY": 40.0649, "EPHEMERIS_TYPE": 0, "CLASSIFICATION_TYPE": "U", "NORAD_CAT_ID": 29988, "ELEMENT_SET_NO": 999, "REV_AT_EPOCH": 98253, "BSTAR": 0.0015413, "MEAN_MOTION_DOT": 6.574e-05, "MEAN_MOTION_DDOT": 0}, "tle": {"line1": "1 29988U 99025LN  25359.55757329  .00006574  00000+0  15413-2 0  9995", "line2": "2 29988  98.6952 103.8833 0119956 339.1989  40.0649 14.50534932982532"}}, "geometry": {"type": "Point", "coordinates": [-93.90682709007153, -63.88585336000726]}}, {"type": "Feature", "properties": {"norad_id": 29989, "name": "FENGYUN 1C DEB", "group": "fengyun-1c-debris", "lat": -39.379115398194784, "lon": -14.426003493738266, "alt_km": 931.0524114177879, "timestamp": "2025-12-25T22:42:17.284224+00:00", "meta": {"OBJECT_NAME": "FENGYUN 1C DEB", "OBJECT_ID": "1999-025LP", "EPOCH": "2025-12-25T04:32:34.155744", "MEAN_MOTION": 14.15826187, "ECCENTRICITY": 0.01238705, "INCLINATION": 98.6692, "RA_OF_ASC_NODE": 337.6437, "ARG_OF_PERICENTER": 159.9697, "MEAN_ANOMALY": 264.8028, "EPHEMERIS_TYPE": 0, "CLASSIFICATION_TYPE": "U", "NORAD_CAT_ID": 29989, "ELEMENT_SET_NO": 999, "REV_AT_EPOCH": 97787, "BSTAR": 0.00012902502, "MEAN_MOTION_DOT": 2.31e-06, "MEAN_MOTION_DDOT": 0}, "tle": {"line1": "1 29989U 99025LP  25359.18928421  .00000231  00000+0  12903-3 0  9994", "line2": "2 29989  98.6692 337.6437 0123870 159.9697 264.8028 14.15826187977870"}}, "geometry": {"type": "Point", "coordinates": [-14.426003493738266, -39.379115398194784]}}, {"type": "Feature", "properties": {"norad_id": 29992, "name": "FENGYUN 1C DEB", "group": "fengyun-1c-debris", "lat": -17.37081245673837, "lon": -2.5208442733153857, "alt_km": 913.3102750066155, "timestamp": "2025-12-25T22:42:17.284234+00:00", "meta": {"OBJECT_NAME": "FENGYUN 1C DEB", "OBJECT_ID": "1999-025LS", "EPOCH": "2025-12-25T13:08:37.449024", "MEAN_MOTION": 14.11616021, "ECCENTRICITY": 0.0089447, "INCLINATION": 98.7308, "RA_OF_ASC_NODE": 354.3362, "ARG_OF_PERICENTER": 131.4869, "MEAN_ANOMALY": 348.2436, "EPHEMERIS_TYPE": 0, "CLASSIFICATION_TYPE": "U", "NORAD_CAT_ID": 29992, "ELEMENT_SET_NO": 999, "REV_AT_EPOCH": 97568, "BSTAR": 6.9412e-05, "MEAN_MOTION_DOT": 8.9e-07, "MEAN_MOTION_DDOT": 0}, "tle": {"line1": "1 29992U 99025LS  25359.54765566  .00000089  00000+0  69412-4 0  9996", "line2": "2 29992  98.7308 354.3362 0089447 131.4869 348.2436 14.11616021975686"}}, "geometry": {"type": "Point", "coordinates": [-2.5208442733153857, -17.37081245673837]}}, {"type": "Feature", "properties": {"norad_id": 29993, "name": "FENGYUN 1C DEB", "group": "fengyun-1c-debris", "lat": 38.67981094140043, "lon": -136.5437906310933, "alt_km": 882.6190048331655, "timestamp": "2025-12-25T22:42:17.284256+00:00", "meta": {"OBJECT_NAME": "FENGYUN 1C DEB", "OBJECT_ID": "1999-025LT", "EPOCH": "2025-12-25T15:12:51.048288", "MEAN_MOTION": 14.08152229, "ECCENTRICITY": 0.0038278, "INCLINATION": 98.7918, "RA_OF_ASC_NODE": 36.0352, "ARG_OF_PERICENTER": 277.5197, "MEAN_ANOMALY": 82.1625, "EPHEMERIS_TYPE": 0, "CLASSIFICATION_TYPE": "U", "NORAD_CAT_ID": 29993, "ELEMENT_SET_NO": 999, "REV_AT_EPOCH": 97351, "BSTAR": 3.1504e-05, "MEAN_MOTION_DOT": 1.1e-07, "MEAN_MOTION_DDOT": 0}, "tle": {"line1": "1 29993U 99025LT  25359.63392417  .00000011  00000+0  31504-4 0  9994", "line2": "2 29993  98.7918  36.0352 0038278 277.5197  82.1625 14.08152229973514"}}, "geometry": {"type": "Point", "coordinates": [-136.5437906310933, 38.67981094140043]}}, {"type": "Feature", "properties": {"norad_id": 29994, "name": "FENGYUN 1C DEB", "group": "fengyun-1c-debris", "lat": 8.042835974086458, "lon": -146.95196605422043, "alt_km": 792.2800604709164, "timestamp": "2025-12-25T22:42:17.284268+00:00", "meta": {"OBJECT_NAME": "FENGYUN 1C DEB", "OBJECT_ID": "1999-025LU", "EPOCH": "2025-12-25T15:34:53.122080", "MEAN_MOTION": 14.02645412, "ECCENTRICITY": 0.013009, "INCLINATION": 98.8264, "RA_OF_ASC_NODE": 31.5023, "ARG_OF_PERICENTER": 177.5681, "MEAN_ANOMALY": 296.3978, "EPHEMERIS_TYPE": 0, "CLASSIFICATION_TYPE": "U", "NORAD_CAT_ID": 29994, "ELEMENT_SET_NO": 999, "REV_AT_EPOCH": 96907, "BSTAR": -1.3004e-05, "MEAN_MOTION_DOT": -6.4e-07, "MEAN_MOTION_DDOT": 0}, "tle": {"line1": "1 29994U 99025LU  25359.64922595 -.00000064  00000+0 -13004-4 0  9997", "line2": "2 29994  98.8264  31.5023 0130090 177.5681 296.3978 14.02645412969078"}}, "geometry": {"type": "Point", "coordinates": [-146.95196605422043, 8.042835974086458]}}, {"type": "Feature", "properties": {"norad_id": 29996, "name": "FENGYUN 1C DEB", "group": "fengyun-1c-debris", "lat": -43.96663299917882, "lon": 46.85773479812193, "alt_km": 875.6707555233306, "timestamp": "2025-12-25T22:42:17.284278+00:00", "meta": {"OBJECT_NAME": "FENGYUN 1C DEB", "OBJECT_ID": "1999-025LW", "EPOCH": "2025-12-25T16:39:32.623776", "MEAN_MOTION": 14.09500921, "ECCENTRICITY": 0.013042, "INCLINATION": 99.3042, "RA_OF_ASC_NODE": 37.4994, "ARG_OF_PERICENTER": 51.6743, "MEAN_ANOMALY": 67.673, "EPHEMERIS_TYPE": 0, "CLASSIFICATION_TYPE": "U", "NORAD_CAT_ID": 29996, "ELEMENT_SET_NO": 999, "REV_AT_EPOCH": 96319, "BSTAR": 0.0018529, "MEAN_MOTION_DOT": 3.459e-05, "MEAN_MOTION_DDOT": 0}, "tle": {"line1": "1 29996U 99025LW  25359.69412759  .00003459  00000+0  18529-2 0  9994", "line2": "2 29996  99.3042  37.4994 0130420  51.6743  67.6730 14.09500921963194"}}, "geometry": {"type": "Point", "coordinates": [46.85773479812193, -43.96663299917882]}}, {"type": "Feature", "properties": {"norad_id": 29997, "name": "FENGYUN 1C DEB", "group": "fengyun-1c-debris", "lat": -74.2853432766832, "lon": 43.79609223475337, "alt_km": 840.1928987106658, "timestamp": "2025-12-25T22:42:17.284288+00:00", "meta": {"OBJECT_NAME": "FENGYUN 1C DEB", "OBJECT_ID": "1999-025LX", "EPOCH": "2025-12-25T01:05:01.987296", "MEAN_MOTION": 14.00907809, "ECCENTRICITY": 0.00801053, "INCLINATION": 98.8828, "RA_OF_ASC_NODE": 9.1532, "ARG_OF_PERICENTER": 293.1075, "MEAN_ANOMALY": 129.2153, "EPHEMERIS_TYPE": 0, "CLASSIFICATION_TYPE": "U", "NORAD_CAT_ID": 29997, "ELEMENT_SET_NO": 999, "REV_AT_EPOCH": 96562, "BSTAR": 0.0007895747, "MEAN_MOTION_DOT": 1.17e-05, "MEAN_MOTION_DDOT": 0}, "tle": {"line1": "1 29997U 99025LX  25359.04516189  .00001170  00000+0  78957-3 0  9996", "line2": "2 29997  98.8828   9.1532 0080105 293.1075 129.2153 14.00907809965621"}}, "geometry": {"type": "Point", "coordinates": [43.79609223475337, -74.2853432766832]}}, {"type": "Feature", "properties": {"norad_id": 29998, "name": "FENGYUN 1C DEB", "group": "fengyun-1c-debris", "lat": 47.50058258640791, "lon": 50.905613330383865, "alt_km": 795.539684809858, "timestamp": "2025-12-25T22:42:17.284298+00:00", "meta": {"OBJECT_NAME": "FENGYUN 1C DEB", "OBJECT_ID": "1999-025LY", "EPOCH": "2025-12-25T17:26:11.196672", "MEAN_MOTION": 14.28600405, "ECCENTRICITY": 0.0005415, "INCLINATION": 99.3047, "RA_OF_ASC_NODE": 60.9785, "ARG_OF_PERICENTER": 257.8396, "MEAN_ANOMALY": 102.2176, "EPHEMERIS_TYPE": 0, "CLASSIFICATION_TYPE": "U", "NORAD_CAT_ID": 29998, "ELEMENT_SET_NO": 999, "REV_AT_EPOCH": 98060, "BSTAR": 0.00091326, "MEAN_MOTION_DOT": 2.243e-05, "MEAN_MOTION_DDOT": 0}, "tle": {"line1": "1 29998U 99025LY  25359.72651848  .00002243  00000+0  91326-3 0  9991", "line2": "2 29998  99.3047  60.9785 0005415 257.8396 102.2176 14.28600405980603"}}, "geometry": {"type": "Point", "coordinates": [50.905613330383865, 47.50058258640791]}}]}